STARLINK-3128           
1 49441U 21104AK  26068.66960610 -.00001075  00000+0 -49416-4 0  9998
2 49441  53.2166 209.2033 0001223 123.5428 236.5682 15.08851835238918
STARLINK-5895           
1 55964U 23037BC  26068.93316413  .00010921  00000+0  72850-3 0  9993
2 55964  69.9972 260.0280 0004986 264.4993  95.5602 15.07243555164606
